NORAD_CAT_ID,OBJECT_NAME,OBJECT_TYPE,EPOCH,MEAN_MOTION,ECCENTRICITY,INCLINATION,RA_OF_ASC_NODE,ARG_OF_PERICENTER,MEAN_ANOMALY,BSTAR,MEAN_MOTION_DOT,MEAN_MOTION_DDOT,TLE_LINE0,TLE_LINE1,TLE_LINE2,SEMIMAJOR_AXIS,PERIOD,APOGEE,PERIGEE,DECAYED
53590.0,STARLINK-4689,PAYLOAD,2023-09-16 15:55:06,15.08858912,0.0001439,53.2187,347.1522,72.4248,287.6901,0.00039805,6.056e-05,0.0,0 STARLINK-4689,1 53590U 22104C   23259.66327518  .00006056  00000-0  39805-3 0  9995,2 53590  53.2187 347.1522 0001439  72.4248 287.6901 15.08858912 58292,6917.823,95.436,540.683,538.692,0.0
53590.0,STARLINK-4689,PAYLOAD,2023-09-17 09:24:21,15.0885182,0.0001606,53.2174,343.8801,103.8593,256.2578,0.00018202,2.611e-05,0.0,0 STARLINK-4689,1 53590U 22104C   23260.39191202  .00002611  00000-0  18202-3 0  9997,2 53590  53.2174 343.8801 0001606 103.8593 256.2578 15.08851820 58405,6917.844,95.437,540.82,538.598,0.0
53590.0,STARLINK-4689,PAYLOAD,2023-09-17 10:59:44,15.08855743,0.0001561,53.218,343.5822,103.0205,257.0961,0.00021107,3.074e-05,0.0,0 STARLINK-4689,1 53590U 22104C   23260.45815041  .00003074  00000-0  21107-3 0  9990,2 53590  53.2180 343.5822 0001561 103.0205 257.0961 15.08855743 59453,6917.832,95.437,540.777,538.617,0.0
53590.0,STARLINK-4689,PAYLOAD,2023-09-18 10:50:31,15.08846014,0.0001558,53.2199,339.1252,98.8435,261.2734,3.1202e-05,2.09e-06,0.0,0 STARLINK-4689,1 53590U 22104C   23261.45175231  .00000209  00000-0  31202-4 0  9996,2 53590  53.2199 339.1252 0001558  98.8435 261.2734 15.08846014 58560,6917.862,95.437,540.805,538.649,0.0
53590.0,STARLINK-4689,PAYLOAD,2023-09-18 12:25:54,15.08846058,0.0001551,53.2199,338.8281,97.4167,262.7001,3.8646e-05,3.27e-06,0.0,0 STARLINK-4689,1 53590U 22104C   23261.51799209  .00000327  00000-0  38646-4 0  9990,2 53590  53.2199 338.8281 0001551  97.4167 262.7001 15.08846058 59616,6917.862,95.437,540.8,538.654,0.0
53590.0,STARLINK-4689,PAYLOAD,2023-09-19 15:27:26,15.08870142,0.0001566,53.2181,333.7709,99.1166,261.0003,0.00082316,0.00012848,0.0,0 STARLINK-4689,1 53590U 22104C   23262.64406092  .00012848  00000-0  82316-3 0  9993,2 53590  53.2181 333.7709 0001566  99.1166 261.0003 15.08870142 58748,6917.788,95.436,540.737,538.57,0.0
53590.0,STARLINK-4689,PAYLOAD,2023-09-20 08:56:42,15.08817897,0.0001279,53.2182,330.5013,60.0388,300.0731,-0.00040597,-6.739e-05,0.0,0 STARLINK-4689,1 53590U 22104C   23263.37271678 -.00006739  00000-0 -40597-3 0  9993,2 53590  53.2182 330.5013 0001279  60.0388 300.0731 15.08817897 58858,6917.948,95.439,540.698,538.928,0.0
53590.0,STARLINK-4689,PAYLOAD,2023-09-20 12:07:29,15.08823014,0.0001495,53.2178,329.9056,73.6715,286.4441,-0.00021433,-3.696e-05,0.0,0 STARLINK-4689,1 53590U 22104C   23263.50519917 -.00003696  00000-0 -21433-3 0  9996,2 53590  53.2178 329.9056 0001495  73.6715 286.4441 15.08823014 59917,6917.932,95.439,540.832,538.763,0.0
53590.0,STARLINK-4689,PAYLOAD,2023-09-21 10:22:53,15.0884849,0.0001354,53.2168,325.7415,72.664,287.45,0.0011806,0.00018556,0.0,0 STARLINK-4689,1 53590U 22104C   23264.43256426  .00018556  00000-0  11806-2 0  9993,2 53590  53.2168 325.7415 0001354  72.6640 287.4500 15.08848490 59012,6917.854,95.437,540.656,538.783,0.0
53590.0,STARLINK-4689,PAYLOAD,2023-09-21 11:58:16,15.08850325,0.0001481,53.217,325.4446,66.8679,293.2469,0.0011297,0.00017742,0.0,0 STARLINK-4689,1 53590U 22104C   23264.49880421  .00017742  00000-0  11297-2 0  9997,2 53590  53.2170 325.4446 0001481  66.8679 293.2469 15.08850325 60060,6917.849,95.437,540.738,538.689,0.0
53590.0,STARLINK-4689,PAYLOAD,2023-09-21 21:30:35,15.0884871,0.0001603,53.216,323.6598,68.7553,291.361,0.00040487,6.163e-05,0.0,0 STARLINK-4689,1 53590U 22104C   23264.89624315  .00006163  00000-0  40487-3 0  9998,2 53590  53.2160 323.6598 0001603  68.7553 291.3610 15.08848710 60124,6917.854,95.437,540.828,538.61,0.0
53590.0,STARLINK-4689,PAYLOAD,2023-09-22 10:13:40,15.08843811,0.0001627,53.2162,321.2817,70.4585,289.6583,0.00038434,5.835e-05,0.0,0 STARLINK-4689,1 53590U 22104C   23265.42616435  .00005835  00000-0  38434-3 0  9996,2 53590  53.2162 321.2817 0001627  70.4585 289.6583 15.08843811 59163,6917.869,95.437,540.859,538.608,0.0
53590.0,STARLINK-4689,PAYLOAD,2023-09-22 21:21:22,15.08849031,0.0001588,53.216,319.2007,70.2047,289.9117,0.00029387,4.393e-05,0.0,0 STARLINK-4689,1 53590U 22104C   23265.88984053  .00004393  00000-0  29387-3 0  9995,2 53590  53.2160 319.2007 0001588  70.2047 289.9117 15.08849031 60276,6917.853,95.437,540.816,538.619,0.0
53590.0,STARLINK-4689,PAYLOAD,2023-09-23 13:15:13,15.0884848,0.0001603,53.2182,316.2253,82.6867,277.4307,8.5635e-05,1.075e-05,0.0,0 STARLINK-4689,1 53590U 22104C   23266.55223791  .00001075  00000-0  85635-4 0  9998,2 53590  53.2182 316.2253 0001603  82.6867 277.4307 15.08848480 60376,6917.854,95.437,540.828,538.611,0.0
53590.0,STARLINK-4689,PAYLOAD,2023-09-24 13:06:00,15.08850524,0.0001394,53.2169,311.7657,92.8407,267.2744,0.00012506,1.704e-05,0.0,0 STARLINK-4689,1 53590U 22104C   23267.54583425  .00001704  00000-0  12506-3 0  9996,2 53590  53.2169 311.7657 0001394  92.8407 267.2744 15.08850524 60520,6917.848,95.437,540.678,538.749,0.0
53590.0,STARLINK-4689,PAYLOAD,2023-09-25 03:24:29,15.08836982,0.0001434,53.2172,309.0898,94.1583,265.9573,4.4883e-05,4.26e-06,0.0,0 STARLINK-4689,1 53590U 22104C   23268.14200254  .00000426  00000-0  44883-4 0  9993,2 53590  53.2172 309.0898 0001434  94.1583 265.9573 15.08836982 59576,6917.89,95.438,540.747,538.763,0.0
53590.0,STARLINK-4689,PAYLOAD,2023-09-25 09:46:01,15.08848473,0.0001422,53.2167,307.8999,90.607,269.5085,0.00021021,3.06e-05,0.0,0 STARLINK-4689,1 53590U 22104C   23268.40695725  .00003060  00000-0  21021-3 0  9998,2 53590  53.2167 307.8999 0001422  90.6070 269.5085 15.08848473 59618,6917.854,95.437,540.703,538.736,0.0
53590.0,STARLINK-4689,PAYLOAD,2023-09-25 11:21:24,15.08850201,0.0001494,53.2171,307.6025,95.8291,264.2872,0.00017571,2.51e-05,0.0,0 STARLINK-4689,1 53590U 22104C   23268.47319607  .00002510  00000-0  17571-3 0  9991,2 53590  53.2171 307.6025 0001494  95.8291 264.2872 15.08850201 60667,6917.849,95.437,540.748,538.681,0.0
53590.0,STARLINK-4689,PAYLOAD,2023-09-26 08:01:25,15.08840526,0.0001601,53.2169,303.7363,94.0976,266.0199,2.8153e-05,1.6e-06,0.0,0 STARLINK-4689,1 53590U 22104C   23269.33432067  .00000160  00000-0  28153-4 0  9991,2 53590  53.2169 303.7363 0001601  94.0976 266.0199 15.08840526 59756,6917.879,95.438,540.851,538.636,0.0
53590.0,STARLINK-4689,PAYLOAD,2023-09-26 12:47:34,15.08845183,0.000154,53.2165,302.8436,99.9788,260.1378,6.0333e-05,6.72e-06,0.0,0 STARLINK-4689,1 53590U 22104C   23269.53303818  .00000672  00000-0  60333-4 0  9998,2 53590  53.2165 302.8436 0001540  99.9788 260.1378 15.08845183 60828,6917.865,95.437,540.795,538.664,0.0
53590.0,STARLINK-4689,PAYLOAD,2023-09-27 01:30:40,15.08835282,0.0001913,53.2159,300.4641,95.4928,264.6282,5.0531e-05,5.16e-06,0.0,0 STARLINK-4689,1 53590U 22104C   23270.06296588  .00000516  00000-0  50531-4 0  9999,2 53590  53.2159 300.4641 0001913  95.4928 264.6282 15.08835282 59868,6917.895,95.438,541.083,538.436,0.0
53590.0,STARLINK-4689,PAYLOAD,2023-09-27 09:27:36,15.08834131,0.0001717,53.2165,298.977,90.7313,269.3876,-5.8543e-05,-1.22e-05,0.0,0 STARLINK-4689,1 53590U 22104C   23270.39416730 -.00001220  00000-0 -58543-4 0  9994,2 53590  53.2165 298.9770 0001717  90.7313 269.3876 15.08834131 60952,6917.898,95.438,540.951,538.576,0.0
53590.0,STARLINK-4689,PAYLOAD,2023-09-28 09:18:23,15.08838284,0.0001568,53.2167,294.5152,96.2919,263.8252,6.9454e-05,8.17e-06,0.0,0 STARLINK-4689,1 53590U 22104C   23271.38776954  .00000817  00000-0  69454-4 0  9993,2 53590  53.2167 294.5152 0001568  96.2919 263.8252 15.08838284 60069,6917.886,95.438,540.835,538.666,0.0
53590.0,STARLINK-4689,PAYLOAD,2023-09-29 07:33:47,15.08841055,0.0001552,53.2168,290.3551,90.1714,269.9456,0.00016784,2.384e-05,0.0,0 STARLINK-4689,1 53590U 22104C   23272.31512809  .00002384  00000-0  16784-3 0  9992,2 53590  53.2168 290.3551 0001552  90.1714 269.9456 15.08841055 61240,6917.877,95.437,540.816,538.669,0.0
53590.0,STARLINK-4689,PAYLOAD,2023-09-29 23:27:38,15.08845534,0.0001496,53.2167,287.3819,95.3912,264.7251,0.00013345,1.837e-05,0.0,0 STARLINK-4689,1 53590U 22104C   23272.97752513  .00001837  00000-0  13345-3 0  9994,2 53590  53.2167 287.3819 0001496  95.3912 264.7251 15.08845534 60304,6917.863,95.437,540.763,538.694,0.0
53590.0,STARLINK-4689,PAYLOAD,2023-09-30 23:18:25,15.08837885,0.0001479,53.2163,282.9205,100.7495,259.3664,-2.5551e-05,-6.95e-06,0.0,0 STARLINK-4689,1 53590U 22104C   23273.97113146 -.00000695  00000-0 -25551-4 0  9994,2 53590  53.2163 282.9205 0001479 100.7495 259.3664 15.08837885 60452,6917.887,95.438,540.775,538.729,0.0
53590.0,STARLINK-4689,PAYLOAD,2023-10-01 07:15:21,15.08842433,0.0001463,53.2169,281.4345,100.168,259.9477,1.2673e-05,-8.6e-07,0.0,0 STARLINK-4689,1 53590U 22104C   23274.30232754 -.00000086  00000-0  12673-4 0  9993,2 53590  53.2169 281.4345 0001463 100.1680 259.9477 15.08842433 61544,6917.873,95.437,540.75,538.726,0.0
53590.0,STARLINK-4689,PAYLOAD,2023-10-02 00:44:35,15.08887404,0.0001159,53.2167,278.1635,95.1999,264.9125,-0.00078237,-0.00012734,0.0,0 STARLINK-4689,1 53590U 22104C   23275.03096355 -.00012734  00000-0 -78237-3 0  9990,2 53590  53.2167 278.1635 0001159  95.1999 264.9125 15.08887404 60615,6917.735,95.435,540.402,538.799,0.0
53590.0,STARLINK-4689,PAYLOAD,2023-10-02 07:06:08,15.08835775,0.0001464,53.2172,276.9754,95.756,264.3599,-2.2464e-05,-6.45e-06,0.0,0 STARLINK-4689,1 53590U 22104C   23275.29593475 -.00000645  00000-0 -22464-4 0  9993,2 53590  53.2172 276.9754 0001464  95.7560 264.3599 15.08835775 60655,6917.893,95.438,540.771,538.746,0.0
53590.0,STARLINK-4689,PAYLOAD,2023-10-02 16:38:27,15.08839644,0.0001508,53.2171,275.1908,95.1696,264.9468,-3.8245e-05,-8.97e-06,0.0,0 STARLINK-4689,1 53590U 22104C   23275.69337339 -.00000897  00000-0 -38245-4 0  9995,2 53590  53.2171 275.1908 0001508  95.1696 264.9468 15.08839644 61751,6917.881,95.438,540.79,538.703,0.0
